STARLINK-11119 [DTC]    
1 60121U 24118J   26035.24361080 -.00003049  00000+0 -20316-4 0  9999
2 60121  53.1595  25.8853 0001126  95.3232 264.7914 15.69708454 92749
STARLINK-11157 [DTC]    
1 60122U 24118K   26035.24852476 -.00002947  00000+0 -19491-4 0  9992
2 60122  53.1588  25.9183 0001254  92.5863 267.5299 15.69692514 92746
STARLINK-11162 [DTC]    
1 60123U 24118L   26035.23870194 -.00002358  00000+0 -14622-4 0  9996
2 60123  53.1577  25.8516 0001022  78.6316 281.4817 15.69698375 92747
STARLINK-11161 [DTC]    
1 60124U 24118M   26035.17022811  .00000868  00000+0  12024-4 0  9991
2 60124  53.1590  26.8687 0001130 106.7268 253.3874 15.69709645 92724
STARLINK-11160 [DTC]    
1 60125U 24118N   26035.25341620  .00001661  00000+0  18568-4 0  9994
2 60125  53.1577  25.9486 0001042 104.1729 255.9404 15.69705908 92740
STARLINK-31846          
1 60126U 24118P   26035.09723573 -.00000507  00000+0 -50017-5 0  9994
2 60126  53.1611 182.7249 0001262  84.0241 276.0904 15.30192404 90553
STARLINK-31840          
1 60127U 24118Q   26034.84230833 -.00000995  00000+0 -21483-4 0  9994
2 60127  53.1592 183.9762 0001093  94.7323 265.3802 15.30189706 90511
STARLINK-31813          
1 60128U 24118R   26034.83914733  .00000564  00000+0  31164-4 0  9999
2 60128  53.1589 183.9575 0000858 116.7900 243.3189 15.30194199 90510
STARLINK-31845          
1 60129U 24118S   26034.83650311 -.00001136  00000+0 -26254-4 0  9991
2 60129  53.1587 181.8028 0001069  85.4653 274.6470 15.30191789 90546
STARLINK-31838          
1 60130U 24118T   26032.82388020 -.00000953  00000+0 -20073-4 0  9994
2 60130  53.1597 193.4167 0000938  86.8370 273.2738 15.30196951 90208
STARLINK-31785          
1 60131U 24118U   26034.43986028  .00013435  00000+0  46487-3 0  9999
2 60131  53.1571 185.7305 0001420  94.2277 265.8886 15.30203251 90455
STARLINK-31792          
1 60132U 24118V   26034.42771397  .00000369  00000+0  24597-4 0  9991
2 60132  53.1595 183.4802 0001201  68.6768 291.4361 15.30198158 90481
STARLINK-32043          
1 60135U 24120A   26034.50703835  .00000539  00000+0  30330-4 0  9999
2 60135  53.1601 118.6284 0001145  84.6655 275.4477 15.30188805 91148
STARLINK-32112          
1 60136U 24120B   26035.19184674 -.00000309  00000+0  16892-5 0  9994
2 60136  53.1595 115.7913 0000894  98.4319 261.6783 15.30189257 91327
STARLINK-32050          
1 60137U 24120C   26035.19816968 -.00005302  00000+0 -16707-3 0  9995
2 60137  53.1603 115.8329 0001608 106.3888 253.7289 15.30184032 91244
STARLINK-32025          
1 60138U 24120D   26035.20861196 -.00000269  00000+0  30429-5 0  9996
2 60138  53.1602 115.1846 0001049  87.4406 272.6715 15.30192527 91258
