[{"OBJECT_NAME":"STARLINK-11119 [DTC]","OBJECT_ID":"2024-118J","EPOCH":"2026-02-04T05:50:47.973120","MEAN_MOTION":15.69708454,"ECCENTRICITY":0.00011266,"INCLINATION":53.1595,"RA_OF_ASC_NODE":25.8853,"ARG_OF_PERICENTER":95.3232,"MEAN_ANOMALY":264.7914,"EPHEMERIS_TYPE":0,"CLASSIFICATION_TYPE":"U","NORAD_CAT_ID":60121,"ELEMENT_SET_NO":999,"REV_AT_EPOCH":9274,"BSTAR":-2.0315695e-5,"MEAN_MOTION_DOT":-3.049e-5,"MEAN_MOTION_DDOT":0},{"OBJECT_NAME":"STARLINK-11157 [DTC]","OBJECT_ID":"2024-118K","EPOCH":"2026-02-04T05:57:52.539264","MEAN_MOTION":15.69692514,"ECCENTRICITY":0.00012544,"INCLINATION":53.1588,"RA_OF_ASC_NODE":25.9183,"ARG_OF_PERICENTER":92.5863,"MEAN_ANOMALY":267.5299,"EPHEMERIS_TYPE":0,"CLASSIFICATION_TYPE":"U","NORAD_CAT_ID":60122,"ELEMENT_SET_NO":999,"REV_AT_EPOCH":9274,"BSTAR":-1.9490935e-5,"MEAN_MOTION_DOT":-2.947e-5,"MEAN_MOTION_DDOT":0},{"OBJECT_NAME":"STARLINK-11162 [DTC]","OBJECT_ID":"2024-118L","EPOCH":"2026-02-04T05:43:43.847616","MEAN_MOTION":15.69698375,"ECCENTRICITY":0.00010222,"INCLINATION":53.1577,"RA_OF_ASC_NODE":25.8516,"ARG_OF_PERICENTER":78.6316,"MEAN_ANOMALY":281.4817,"EPHEMERIS_TYPE":0,"CLASSIFICATION_TYPE":"U","NORAD_CAT_ID":60123,"ELEMENT_SET_NO":999,"REV_AT_EPOCH":9274,"BSTAR":-1.4622272e-5,"MEAN_MOTION_DOT":-2.358e-5,"MEAN_MOTION_DDOT":0},{"OBJECT_NAME":"STARLINK-11161 [DTC]","OBJECT_ID":"2024-118M","EPOCH":"2026-02-04T04:05:07.708704","MEAN_MOTION":15.69709645,"ECCENTRICITY":0.00011306,"INCLINATION":53.159,"RA_OF_ASC_NODE":26.8687,"ARG_OF_PERICENTER":106.7268,"MEAN_ANOMALY":253.3874,"EPHEMERIS_TYPE":0,"CLASSIFICATION_TYPE":"U","NORAD_CAT_ID":60124,"ELEMENT_SET_NO":999,"REV_AT_EPOCH":9272,"BSTAR":1.2023587e-5,"MEAN_MOTION_DOT":8.68e-6,"MEAN_MOTION_DDOT":0},{"OBJECT_NAME":"STARLINK-11160 [DTC]","OBJECT_ID":"2024-118N","EPOCH":"2026-02-04T06:04:55.159680","MEAN_MOTION":15.69705908,"ECCENTRICITY":0.00010421,"INCLINATION":53.1577,"RA_OF_ASC_NODE":25.9486,"ARG_OF_PERICENTER":104.1729,"MEAN_ANOMALY":255.9404,"EPHEMERIS_TYPE":0,"CLASSIFICATION_TYPE":"U","NORAD_CAT_ID":60125,"ELEMENT_SET_NO":999,"REV_AT_EPOCH":9274,"BSTAR":1.8567651e-5,"MEAN_MOTION_DOT":1.661e-5,"MEAN_MOTION_DDOT":0},{"OBJECT_NAME":"STARLINK-31846","OBJECT_ID":"2024-118P","EPOCH":"2026-02-04T02:20:01.167072","MEAN_MOTION":15.30192404,"ECCENTRICITY":0.00012629,"INCLINATION":53.1611,"RA_OF_ASC_NODE":182.7249,"ARG_OF_PERICENTER":84.0241,"MEAN_ANOMALY":276.0904,"EPHEMERIS_TYPE":0,"CLASSIFICATION_TYPE":"U","NORAD_CAT_ID":60126,"ELEMENT_SET_NO":999,"REV_AT_EPOCH":9055,"BSTAR":-5.001678e-6,"MEAN_MOTION_DOT":-5.07e-6,"MEAN_MOTION_DDOT":0},{"OBJECT_NAME":"STARLINK-31840","OBJECT_ID":"2024-118Q","EPOCH":"2026-02-03T20:12:55.439712","MEAN_MOTION":15.30189706,"ECCENTRICITY":0.00010933,"INCLINATION":53.1592,"RA_OF_ASC_NODE":183.9762,"ARG_OF_PERICENTER":94.7323,"MEAN_ANOMALY":265.3802,"EPHEMERIS_TYPE":0,"CLASSIFICATION_TYPE":"U","NORAD_CAT_ID":60127,"ELEMENT_SET_NO":999,"REV_AT_EPOCH":9051,"BSTAR":-2.1483314e-5,"MEAN_MOTION_DOT":-9.95e-6,"MEAN_MOTION_DDOT":0},{"OBJECT_NAME":"STARLINK-31813","OBJECT_ID":"2024-118R","EPOCH":"2026-02-03T20:08:22.329312","MEAN_MOTION":15.30194199,"ECCENTRICITY":8.585e-5,"INCLINATION":53.1589,"RA_OF_ASC_NODE":183.9575,"ARG_OF_PERICENTER":116.79,"MEAN_ANOMALY":243.3189,"EPHEMERIS_TYPE":0,"CLASSIFICATION_TYPE":"U","NORAD_CAT_ID":60128,"ELEMENT_SET_NO":999,"REV_AT_EPOCH":9051,"BSTAR":3.1164007e-5,"MEAN_MOTION_DOT":5.64e-6,"MEAN_MOTION_DDOT":0},{"OBJECT_NAME":"STARLINK-31845","OBJECT_ID":"2024-118S","EPOCH":"2026-02-03T20:04:33.868704","MEAN_MOTION":15.30191789,"ECCENTRICITY":0.00010699,"INCLINATION":53.1587,"RA_OF_ASC_NODE":181.8028,"ARG_OF_PERICENTER":85.4653,"MEAN_ANOMALY":274.647,"EPHEMERIS_TYPE":0,"CLASSIFICATION_TYPE":"U","NORAD_CAT_ID":60129,"ELEMENT_SET_NO":999,"REV_AT_EPOCH":9054,"BSTAR":-2.6253523e-5,"MEAN_MOTION_DOT":-1.136e-5,"MEAN_MOTION_DDOT":0},{"OBJECT_NAME":"STARLINK-31838","OBJECT_ID":"2024-118T","EPOCH":"2026-02-01T19:46:23.249280","MEAN_MOTION":15.30196951,"ECCENTRICITY":9.381e-5,"INCLINATION":53.1597,"RA_OF_ASC_NODE":193.4167,"ARG_OF_PERICENTER":86.837,"MEAN_ANOMALY":273.2738,"EPHEMERIS_TYPE":0,"CLASSIFICATION_TYPE":"U","NORAD_CAT_ID":60130,"ELEMENT_SET_NO":999,"REV_AT_EPOCH":9020,"BSTAR":-2.007345e-5,"MEAN_MOTION_DOT":-9.53e-6,"MEAN_MOTION_DDOT":0},{"OBJECT_NAME":"STARLINK-31785","OBJECT_ID":"2024-118U","EPOCH":"2026-02-03T10:33:23.928192","MEAN_MOTION":15.30203251,"ECCENTRICITY":0.00014206,"INCLINATION":53.1571,"RA_OF_ASC_NODE":185.7305,"ARG_OF_PERICENTER":94.2277,"MEAN_ANOMALY":265.8886,"EPHEMERIS_TYPE":0,"CLASSIFICATION_TYPE":"U","NORAD_CAT_ID":60131,"ELEMENT_SET_NO":999,"REV_AT_EPOCH":9045,"BSTAR":0.00046487404,"MEAN_MOTION_DOT":0.00013435,"MEAN_MOTION_DDOT":0},{"OBJECT_NAME":"STARLINK-31792","OBJECT_ID":"2024-118V","EPOCH":"2026-02-03T10:15:54.487008","MEAN_MOTION":15.30198158,"ECCENTRICITY":0.0001201,"INCLINATION":53.1595,"RA_OF_ASC_NODE":183.4802,"ARG_OF_PERICENTER":68.6768,"MEAN_ANOMALY":291.4361,"EPHEMERIS_TYPE":0,"CLASSIFICATION_TYPE":"U","NORAD_CAT_ID":60132,"ELEMENT_SET_NO":999,"REV_AT_EPOCH":9048,"BSTAR":2.4596948e-5,"MEAN_MOTION_DOT":3.69e-6,"MEAN_MOTION_DDOT":0},{"OBJECT_NAME":"STARLINK-32043","OBJECT_ID":"2024-120A","EPOCH":"2026-02-03T12:10:08.113440","MEAN_MOTION":15.30188805,"ECCENTRICITY":0.0001145,"INCLINATION":53.1601,"RA_OF_ASC_NODE":118.6284,"ARG_OF_PERICENTER":84.6655,"MEAN_ANOMALY":275.4477,"EPHEMERIS_TYPE":0,"CLASSIFICATION_TYPE":"U","NORAD_CAT_ID":60135,"ELEMENT_SET_NO":999,"REV_AT_EPOCH":9114,"BSTAR":3.0329776e-5,"MEAN_MOTION_DOT":5.39e-6,"MEAN_MOTION_DDOT":0},{"OBJECT_NAME":"STARLINK-32112","OBJECT_ID":"2024-120B","EPOCH":"2026-02-04T04:36:15.558336","MEAN_MOTION":15.30189257,"ECCENTRICITY":8.943e-5,"INCLINATION":53.1595,"RA_OF_ASC_NODE":115.7913,"ARG_OF_PERICENTER":98.4319,"MEAN_ANOMALY":261.6783,"EPHEMERIS_TYPE":0,"CLASSIFICATION_TYPE":"U","NORAD_CAT_ID":60136,"ELEMENT_SET_NO":999,"REV_AT_EPOCH":9132,"BSTAR":1.689161e-6,"MEAN_MOTION_DOT":-3.09e-6,"MEAN_MOTION_DDOT":0},{"OBJECT_NAME":"STARLINK-32050","OBJECT_ID":"2024-120C","EPOCH":"2026-02-04T04:45:21.860352","MEAN_MOTION":15.30184032,"ECCENTRICITY":0.00016085,"INCLINATION":53.1603,"RA_OF_ASC_NODE":115.8329,"ARG_OF_PERICENTER":106.3888,"MEAN_ANOMALY":253.7289,"EPHEMERIS_TYPE":0,"CLASSIFICATION_TYPE":"U","NORAD_CAT_ID":60137,"ELEMENT_SET_NO":999,"REV_AT_EPOCH":9124,"BSTAR":-0.00016706925,"MEAN_MOTION_DOT":-5.302e-5,"MEAN_MOTION_DDOT":0},{"OBJECT_NAME":"STARLINK-32025","OBJECT_ID":"2024-120D","EPOCH":"2026-02-04T05:00:24.073344","MEAN_MOTION":15.30192527,"ECCENTRICITY":0.00010498,"INCLINATION":53.1602,"RA_OF_ASC_NODE":115.1846,"ARG_OF_PERICENTER":87.4406,"MEAN_ANOMALY":272.6715,"EPHEMERIS_TYPE":0,"CLASSIFICATION_TYPE":"U","NORAD_CAT_ID":60138,"ELEMENT_SET_NO":999,"REV_AT_EPOCH":9125,"BSTAR":3.042887e-6,"MEAN_MOTION_DOT":-2.69e-6,"MEAN_MOTION_DDOT":0}]
